{
  "type": "FeatureCollection",
  "features": [
    {
      "type": "Feature",
      "properties": {
        "norad_id": 30837,
        "name": "FENGYUN 1C DEB",
        "group": "fengyun-1c-debris",
        "lat": -67.37390171439831,
        "lon": 129.2861074653108,
        "alt_km": 858.9200734788674,
        "timestamp": "2025-12-10T11:33:53.664271+00:00",
        "meta_object_name": "FENGYUN 1C DEB",
        "meta_object_id": "1999-025AVX",
        "meta_epoch": "2025-12-09T22:38:25.090944",
        "meta_mean_motion": 14.14515927,
        "meta_eccentricity": 0.0032819,
        "meta_inclination": 98.6781,
        "meta_ra_of_asc_node": 330.2586,
        "meta_arg_of_pericenter": 141.2807,
        "meta_mean_anomaly": 246.5723,
        "meta_ephemeris_type": 0,
        "meta_classification_type": "U",
        "meta_norad_cat_id": 30837,
        "meta_element_set_no": 999,
        "meta_rev_at_epoch": 96779,
        "meta_bstar": 0.00045262,
        "meta_mean_motion_dot": 8.3e-06,
        "meta_mean_motion_ddot": 0,
        "tle_line1": "1 30837U 99025AVX 25343.94334596  .00000830  00000+0  45262-3 0  9998",
        "tle_line2": "2 30837  98.6781 330.2586 0032819 141.2807 246.5723 14.14515927967791"
      },
      "geometry": {
        "type": "Point",
        "coordinates": [
          129.2861074653108,
          -67.37390171439831
        ]
      }
    },
    {
      "type": "Feature",
      "properties": {
        "norad_id": 30838,
        "name": "FENGYUN 1C DEB",
        "group": "fengyun-1c-debris",
        "lat": -14.877054158456232,
        "lon": -99.37846231221882,
        "alt_km": 762.0030890821463,
        "timestamp": "2025-12-10T11:33:53.664281+00:00",
        "meta_object_name": "FENGYUN 1C DEB",
        "meta_object_id": "1999-025AVY",
        "meta_epoch": "2025-12-10T00:01:23.479680",
        "meta_mean_motion": 14.4765373,
        "meta_eccentricity": 0.0033838,
        "meta_inclination": 99.0418,
        "meta_ra_of_asc_node": 257.6834,
        "meta_arg_of_pericenter": 166.9716,
        "meta_mean_anomaly": 193.2356,
        "meta_ephemeris_type": 0,
        "meta_classification_type": "U",
        "meta_norad_cat_id": 30838,
        "meta_element_set_no": 999,
        "meta_rev_at_epoch": 97274,
        "meta_bstar": 0.0036643,
        "meta_mean_motion_dot": 0.00013583,
        "meta_mean_motion_ddot": 0,
        "tle_line1": "1 30838U 99025AVY 25344.00096620  .00013583  00000+0  36643-2 0  9991",
        "tle_line2": "2 30838  99.0418 257.6834 0033838 166.9716 193.2356 14.47653730972749"
      },
      "geometry": {
        "type": "Point",
        "coordinates": [
          -99.37846231221882,
          -14.877054158456232
        ]
      }
    },
    {
      "type": "Feature",
      "properties": {
        "norad_id": 30840,
        "name": "FENGYUN 1C DEB",
        "group": "fengyun-1c-debris",
        "lat": 0.8320822461589756,
        "lon": -4.221894002981069,
        "alt_km": 544.7252796572684,
        "timestamp": "2025-12-10T11:33:53.664291+00:00",
        "meta_object_name": "FENGYUN 1C DEB",
        "meta_object_id": "1999-025AWA",
        "meta_epoch": "2025-12-10T00:03:22.176000",
        "meta_mean_motion": 14.61059408,
        "meta_eccentricity": 0.0218064,
        "meta_inclination": 98.0237,
        "meta_ra_of_asc_node": 355.4302,
        "meta_arg_of_pericenter": 19.2023,
        "meta_mean_anomaly": 341.7237,
        "meta_ephemeris_type": 0,
        "meta_classification_type": "U",
        "meta_norad_cat_id": 30840,
        "meta_element_set_no": 999,
        "meta_rev_at_epoch": 73091,
        "meta_bstar": 0.0010591,
        "meta_mean_motion_dot": 7.247e-05,
        "meta_mean_motion_ddot": 0,
        "tle_line1": "1 30840U 99025AWA 25344.00234000  .00007247  00000+0  10591-2 0  9994",
        "tle_line2": "2 30840  98.0237 355.4302 0218064  19.2023 341.7237 14.61059408730911"
      },
      "geometry": {
        "type": "Point",
        "coordinates": [
          -4.221894002981069,
          0.8320822461589756
        ]
      }
    },
    {
      "type": "Feature",
      "properties": {
        "norad_id": 30843,
        "name": "FENGYUN 1C DEB",
        "group": "fengyun-1c-debris",
        "lat": -76.59443834337468,
        "lon": -164.79416440572965,
        "alt_km": 796.7607044790166,
        "timestamp": "2025-12-10T11:33:53.664300+00:00",
        "meta_object_name": "FENGYUN 1C DEB",
        "meta_object_id": "1999-025AWD",
        "meta_epoch": "2025-12-10T03:46:14.704032",
        "meta_mean_motion": 14.5246823,
        "meta_eccentricity": 0.0148887,
        "meta_inclination": 98.8427,
        "meta_ra_of_asc_node": 55.6446,
        "meta_arg_of_pericenter": 127.3768,
        "meta_mean_anomaly": 234.1091,
        "meta_ephemeris_type": 0,
        "meta_classification_type": "U",
        "meta_norad_cat_id": 30843,
        "meta_element_set_no": 999,
        "meta_rev_at_epoch": 99287,
        "meta_bstar": 0.00029694,
        "meta_mean_motion_dot": 1.344e-05,
        "meta_mean_motion_ddot": 0,
        "tle_line1": "1 30843U 99025AWD 25344.15711463  .00001344  00000+0  29694-3 0  9993",
        "tle_line2": "2 30843  98.8427  55.6446 0148887 127.3768 234.1091 14.52468230992878"
      },
      "geometry": {
        "type": "Point",
        "coordinates": [
          -164.79416440572965,
          -76.59443834337468
        ]
      }
    },
    {
      "type": "Feature",
      "properties": {
        "norad_id": 30845,
        "name": "FENGYUN 1C DEB",
        "group": "fengyun-1c-debris",
        "lat": 77.09680038677683,
        "lon": -54.71462025833311,
        "alt_km": 1103.0224410377823,
        "timestamp": "2025-12-10T11:33:53.664310+00:00",
        "meta_object_name": "FENGYUN 1C DEB",
        "meta_object_id": "1999-025AWF",
        "meta_epoch": "2025-12-09T23:06:00.869184",
        "meta_mean_motion": 13.76854563,
        "meta_eccentricity": 0.0192068,
        "meta_inclination": 98.3792,
        "meta_ra_of_asc_node": 344.87,
        "meta_arg_of_pericenter": 278.0623,
        "meta_mean_anomaly": 108.58,
        "meta_ephemeris_type": 0,
        "meta_classification_type": "U",
        "meta_norad_cat_id": 30845,
        "meta_element_set_no": 999,
        "meta_rev_at_epoch": 94205,
        "meta_bstar": 0.00051182,
        "meta_mean_motion_dot": 5.39e-06,
        "meta_mean_motion_ddot": 0,
        "tle_line1": "1 30845U 99025AWF 25343.96251006  .00000539  00000+0  51182-3 0  9997",
        "tle_line2": "2 30845  98.3792 344.8700 0192068 278.0623 108.5800 13.76854563942050"
      },
      "geometry": {
        "type": "Point",
        "coordinates": [
          -54.71462025833311,
          77.09680038677683
        ]
      }
    },
    {
      "type": "Feature",
      "properties": {
        "norad_id": 30846,
        "name": "FENGYUN 1C DEB",
        "group": "fengyun-1c-debris",
        "lat": 47.20889878698899,
        "lon": -12.29443160739154,
        "alt_km": 782.155631902031,
        "timestamp": "2025-12-10T11:33:53.664321+00:00",
        "meta_object_name": "FENGYUN 1C DEB",
        "meta_object_id": "1999-025AWG",
        "meta_epoch": "2025-12-09T10:14:51.285408",
        "meta_mean_motion": 14.41516581,
        "meta_eccentricity": 0.00540654,
        "meta_inclination": 99.321,
        "meta_ra_of_asc_node": 156.3362,
        "meta_arg_of_pericenter": 346.194,
        "meta_mean_anomaly": 74.1353,
        "meta_ephemeris_type": 0,
        "meta_classification_type": "U",
        "meta_norad_cat_id": 30846,
        "meta_element_set_no": 999,
        "meta_rev_at_epoch": 97882,
        "meta_bstar": 0.0013088073,
        "meta_mean_motion_dot": 4.276e-05,
        "meta_mean_motion_ddot": 0,
        "tle_line1": "1 30846U 99025AWG 25343.42698247  .00004276  00000+0  13088-2 0  9995",
        "tle_line2": "2 30846  99.3210 156.3362 0054065 346.1940  74.1353 14.41516581978823"
      },
      "geometry": {
        "type": "Point",
        "coordinates": [
          -12.29443160739154,
          47.20889878698899
        ]
      }
    },
    {
      "type": "Feature",
      "properties": {
        "norad_id": 30847,
        "name": "FENGYUN 1C DEB",
        "group": "fengyun-1c-debris",
        "lat": 42.68203735477512,
        "lon": 136.5272778221792,
        "alt_km": 814.5527439662064,
        "timestamp": "2025-12-10T11:33:53.664331+00:00",
        "meta_object_name": "FENGYUN 1C DEB",
        "meta_object_id": "1999-025AWH",
        "meta_epoch": "2025-12-10T03:08:27.760704",
        "meta_mean_motion": 14.16989807,
        "meta_eccentricity": 0.0065353,
        "meta_inclination": 98.732,
        "meta_ra_of_asc_node": 144.3308,
        "meta_arg_of_pericenter": 335.7279,
        "meta_mean_anomaly": 77.4852,
        "meta_ephemeris_type": 0,
        "meta_classification_type": "U",
        "meta_norad_cat_id": 30847,
        "meta_element_set_no": 999,
        "meta_rev_at_epoch": 96018,
        "meta_bstar": 0.0025496,
        "meta_mean_motion_dot": 5.19e-05,
        "meta_mean_motion_ddot": 0,
        "tle_line1": "1 30847U 99025AWH 25344.13087686  .00005190  00000+0  25496-2 0  9996",
        "tle_line2": "2 30847  98.7320 144.3308 0065353 335.7279  77.4852 14.16989807960184"
      },
      "geometry": {
        "type": "Point",
        "coordinates": [
          136.5272778221792,
          42.68203735477512
        ]
      }
    }
  ]
}